{"type": "FeatureCollection", "features": [{"type": "Feature", "properties": {"norad_id": 28054, "name": "DMSP 5D-3 F16 (USA 172)", "group": "weather", "lat": -47.21568223834593, "lon": 11.719203446535175, "alt_km": 846.4546725328946, "timestamp": "2025-12-10T09:57:44.347471+00:00", "meta": {"OBJECT_NAME": "DMSP 5D-3 F16 (USA 172)", "OBJECT_ID": "2003-048A", "EPOCH": "2025-12-10T03:43:34.915872", "MEAN_MOTION": 14.14422824, "ECCENTRICITY": 0.0006586, "INCLINATION": 99.0048, "RA_OF_ASC_NODE": 1.5919, "ARG_OF_PERICENTER": 328.9199, "MEAN_ANOMALY": 100.8843, "EPHEMERIS_TYPE": 0, "CLASSIFICATION_TYPE": "U", "NORAD_CAT_ID": 28054, "ELEMENT_SET_NO": 999, "REV_AT_EPOCH": 14276, "BSTAR": 0.00013555, "MEAN_MOTION_DOT": 2.14e-06, "MEAN_MOTION_DDOT": 0}, "tle": {"line1": "1 28054U 03048A   25344.15526523  .00000214  00000+0  13555-3 0  9999", "line2": "2 28054  99.0048   1.5919 0006586 328.9199 100.8843 14.14422824142768"}}, "geometry": {"type": "Point", "coordinates": [11.719203446535175, -47.21568223834593]}}, {"type": "Feature", "properties": {"norad_id": 28912, "name": "METEOSAT-9 (MSG-2)", "group": "weather", "lat": -5.564300568503754, "lon": -85.84480524759145, "alt_km": 35771.83502775723, "timestamp": "2025-12-10T09:57:44.347519+00:00", "meta": {"OBJECT_NAME": "METEOSAT-9 (MSG-2)", "OBJECT_ID": "2005-049B", "EPOCH": "2025-12-09T20:38:15.300384", "MEAN_MOTION": 1.00274858, "ECCENTRICITY": 0.0003774, "INCLINATION": 8.9334, "RA_OF_ASC_NODE": 56.0037, "ARG_OF_PERICENTER": 190.0856, "MEAN_ANOMALY": 187.9557, "EPHEMERIS_TYPE": 0, "CLASSIFICATION_TYPE": "U", "NORAD_CAT_ID": 28912, "ELEMENT_SET_NO": 999, "REV_AT_EPOCH": 510, "BSTAR": 0, "MEAN_MOTION_DOT": 1.24e-06, "MEAN_MOTION_DDOT": 0}, "tle": {"line1": "1 28912U 05049B   25343.85989931  .00000124  00000+0  00000+0 0  9994", "line2": "2 28912   8.9334  56.0037 0003774 190.0856 187.9557  1.00274858  5105"}}, "geometry": {"type": "Point", "coordinates": [-85.84480524759145, -5.564300568503754]}}, {"type": "Feature", "properties": {"norad_id": 29522, "name": "DMSP 5D-3 F17 (USA 191)", "group": "weather", "lat": -66.84900290998796, "lon": 148.76806095613645, "alt_km": 843.353787074203, "timestamp": "2025-12-10T09:57:44.347537+00:00", "meta": {"OBJECT_NAME": "DMSP 5D-3 F17 (USA 191)", "OBJECT_ID": "2006-050A", "EPOCH": "2025-12-10T03:41:59.746272", "MEAN_MOTION": 14.14917722, "ECCENTRICITY": 0.0009305, "INCLINATION": 98.7394, "RA_OF_ASC_NODE": 349.5971, "ARG_OF_PERICENTER": 232.9171, "MEAN_ANOMALY": 127.1152, "EPHEMERIS_TYPE": 0, "CLASSIFICATION_TYPE": "U", "NORAD_CAT_ID": 29522, "ELEMENT_SET_NO": 999, "REV_AT_EPOCH": 98568, "BSTAR": 0.00015752, "MEAN_MOTION_DOT": 2.61e-06, "MEAN_MOTION_DDOT": 0}, "tle": {"line1": "1 29522U 06050A   25344.15416373  .00000261  00000+0  15752-3 0  9990", "line2": "2 29522  98.7394 349.5971 0009305 232.9171 127.1152 14.14917722985685"}}, "geometry": {"type": "Point", "coordinates": [148.76806095613645, -66.84900290998796]}}, {"type": "Feature", "properties": {"norad_id": 32958, "name": "FENGYUN 3A", "group": "weather", "lat": -73.62446621252708, "lon": -44.729750609949804, "alt_km": 829.4830077707493, "timestamp": "2025-12-10T09:57:44.347551+00:00", "meta": {"OBJECT_NAME": "FENGYUN 3A", "OBJECT_ID": "2008-026A", "EPOCH": "2025-12-09T19:05:40.330752", "MEAN_MOTION": 14.19513133, "ECCENTRICITY": 0.0008032, "INCLINATION": 98.6694, "RA_OF_ASC_NODE": 283.3844, "ARG_OF_PERICENTER": 319.7099, "MEAN_ANOMALY": 40.3482, "EPHEMERIS_TYPE": 0, "CLASSIFICATION_TYPE": "U", "NORAD_CAT_ID": 32958, "ELEMENT_SET_NO": 999, "REV_AT_EPOCH": 90853, "BSTAR": 0.00012769, "MEAN_MOTION_DOT": 2.26e-06, "MEAN_MOTION_DDOT": 0}, "tle": {"line1": "1 32958U 08026A   25343.79560568  .00000226  00000+0  12769-3 0  9993", "line2": "2 32958  98.6694 283.3844 0008032 319.7099  40.3482 14.19513133908531"}}, "geometry": {"type": "Point", "coordinates": [-44.729750609949804, -73.62446621252708]}}, {"type": "Feature", "properties": {"norad_id": 35491, "name": "GOES 14", "group": "weather", "lat": 0.6989386198021001, "lon": 120.48408774588418, "alt_km": 35794.0276680395, "timestamp": "2025-12-10T09:57:44.347566+00:00", "meta": {"OBJECT_NAME": "GOES 14", "OBJECT_ID": "2009-033A", "EPOCH": "2025-12-10T02:20:46.762080", "MEAN_MOTION": 1.00273291, "ECCENTRICITY": 0.0003997, "INCLINATION": 1.1929, "RA_OF_ASC_NODE": 85.4374, "ARG_OF_PERICENTER": 154.9419, "MEAN_ANOMALY": 125.598, "EPHEMERIS_TYPE": 0, "CLASSIFICATION_TYPE": "U", "NORAD_CAT_ID": 35491, "ELEMENT_SET_NO": 999, "REV_AT_EPOCH": 469, "BSTAR": 0, "MEAN_MOTION_DOT": -6.5e-07, "MEAN_MOTION_DDOT": 0}, "tle": {"line1": "1 35491U 09033A   25344.09776345 -.00000065  00000+0  00000+0 0  9996", "line2": "2 35491   1.1929  85.4374 0003997 154.9419 125.5980  1.00273291  4692"}}, "geometry": {"type": "Point", "coordinates": [120.48408774588418, 0.6989386198021001]}}, {"type": "Feature", "properties": {"norad_id": 35951, "name": "DMSP 5D-3 F18 (USA 210)", "group": "weather", "lat": 61.50637626000537, "lon": 157.5729022313734, "alt_km": 831.271974666035, "timestamp": "2025-12-10T09:57:44.347588+00:00", "meta": {"OBJECT_NAME": "DMSP 5D-3 F18 (USA 210)", "OBJECT_ID": "2009-057A", "EPOCH": "2025-12-10T04:19:10.867296", "MEAN_MOTION": 14.14766723, "ECCENTRICITY": 0.0012092, "INCLINATION": 98.8832, "RA_OF_ASC_NODE": 320.5936, "ARG_OF_PERICENTER": 69.4357, "MEAN_ANOMALY": 290.8112, "EPHEMERIS_TYPE": 0, "CLASSIFICATION_TYPE": "U", "NORAD_CAT_ID": 35951, "ELEMENT_SET_NO": 999, "REV_AT_EPOCH": 83286, "BSTAR": 0.00023118, "MEAN_MOTION_DOT": 4.01e-06, "MEAN_MOTION_DDOT": 0}, "tle": {"line1": "1 35951U 09057A   25344.17998689  .00000401  00000+0  23118-3 0  9991", "line2": "2 35951  98.8832 320.5936 0012092  69.4357 290.8112 14.14766723832860"}}, "geometry": {"type": "Point", "coordinates": [157.5729022313734, 61.50637626000537]}}, {"type": "Feature", "properties": {"norad_id": 36411, "name": "EWS-G2 (GOES 15)", "group": "weather", "lat": -0.3472858318858987, "lon": -69.716508737975, "alt_km": 35765.35686085644, "timestamp": "2025-12-10T09:57:44.347608+00:00", "meta": {"OBJECT_NAME": "EWS-G2 (GOES 15)", "OBJECT_ID": "2010-008A", "EPOCH": "2025-12-10T01:58:51.583008", "MEAN_MOTION": 1.00269219, "ECCENTRICITY": 0.0005893, "INCLINATION": 0.8075, "RA_OF_ASC_NODE": 86.0538, "ARG_OF_PERICENTER": 173.5819, "MEAN_ANOMALY": 270.5727, "EPHEMERIS_TYPE": 0, "CLASSIFICATION_TYPE": "U", "NORAD_CAT_ID": 36411, "ELEMENT_SET_NO": 999, "REV_AT_EPOCH": 5774, "BSTAR": 0, "MEAN_MOTION_DOT": 4.1e-07, "MEAN_MOTION_DDOT": 0}, "tle": {"line1": "1 36411U 10008A   25344.08254147  .00000041  00000+0  00000+0 0  9996", "line2": "2 36411   0.8075  86.0538 0005893 173.5819 270.5727  1.00269219 57749"}}, "geometry": {"type": "Point", "coordinates": [-69.716508737975, -0.3472858318858987]}}, {"type": "Feature", "properties": {"norad_id": 36744, "name": "COMS 1", "group": "weather", "lat": -4.280492818768286, "lon": -2.960576832551379, "alt_km": 35785.7905707385, "timestamp": "2025-12-10T09:57:44.347621+00:00", "meta": {"OBJECT_NAME": "COMS 1", "OBJECT_ID": "2010-032A", "EPOCH": "2025-12-09T14:54:38.529792", "MEAN_MOTION": 1.00270977, "ECCENTRICITY": 0.0001129, "INCLINATION": 4.3339, "RA_OF_ASC_NODE": 78.0311, "ARG_OF_PERICENTER": 203.6251, "MEAN_ANOMALY": 148.7892, "EPHEMERIS_TYPE": 0, "CLASSIFICATION_TYPE": "U", "NORAD_CAT_ID": 36744, "ELEMENT_SET_NO": 999, "REV_AT_EPOCH": 4918, "BSTAR": 0, "MEAN_MOTION_DOT": -3.42e-06, "MEAN_MOTION_DDOT": 0}, "tle": {"line1": "1 36744U 10032A   25343.62127928 -.00000342  00000+0  00000+0 0  9992", "line2": "2 36744   4.3339  78.0311 0001129 203.6251 148.7892  1.00270977 49184"}}, "geometry": {"type": "Point", "coordinates": [-2.960576832551379, -4.280492818768286]}}, {"type": "Feature", "properties": {"norad_id": 37214, "name": "FENGYUN 3B", "group": "weather", "lat": 77.72963925375254, "lon": -22.33536663358987, "alt_km": 832.154721920705, "timestamp": "2025-12-10T09:57:44.347633+00:00", "meta": {"OBJECT_NAME": "FENGYUN 3B", "OBJECT_ID": "2010-059A", "EPOCH": "2025-12-10T04:51:43.159968", "MEAN_MOTION": 14.14788312, "ECCENTRICITY": 0.0022162, "INCLINATION": 98.9905, "RA_OF_ASC_NODE": 24.1618, "ARG_OF_PERICENTER": 4.9564, "MEAN_ANOMALY": 74.6509, "EPHEMERIS_TYPE": 0, "CLASSIFICATION_TYPE": "U", "NORAD_CAT_ID": 37214, "ELEMENT_SET_NO": 999, "REV_AT_EPOCH": 78070, "BSTAR": 0.00013616, "MEAN_MOTION_DOT": 2.18e-06, "MEAN_MOTION_DDOT": 0}, "tle": {"line1": "1 37214U 10059A   25344.20258287  .00000218  00000+0  13616-3 0  9994", "line2": "2 37214  98.9905  24.1618 0022162   4.9564  74.6509 14.14788312780704"}}, "geometry": {"type": "Point", "coordinates": [-22.33536663358987, 77.72963925375254]}}, {"type": "Feature", "properties": {"norad_id": 37849, "name": "SUOMI NPP", "group": "weather", "lat": -61.54141093385185, "lon": 85.21655267156468, "alt_km": 834.8826106619172, "timestamp": "2025-12-10T09:57:44.347645+00:00", "meta": {"OBJECT_NAME": "SUOMI NPP", "OBJECT_ID": "2011-061A", "EPOCH": "2025-12-10T03:44:50.236800", "MEAN_MOTION": 14.19512976, "ECCENTRICITY": 0.0002162, "INCLINATION": 98.777, "RA_OF_ASC_NODE": 281.521, "ARG_OF_PERICENTER": 124.7414, "MEAN_ANOMALY": 235.3966, "EPHEMERIS_TYPE": 0, "CLASSIFICATION_TYPE": "U", "NORAD_CAT_ID": 37849, "ELEMENT_SET_NO": 999, "REV_AT_EPOCH": 73162, "BSTAR": 0.00010766, "MEAN_MOTION_DOT": 1.83e-06, "MEAN_MOTION_DDOT": 0}, "tle": {"line1": "1 37849U 11061A   25344.15613700  .00000183  00000+0  10766-3 0  9995", "line2": "2 37849  98.7770 281.5210 0002162 124.7414 235.3966 14.19512976731622"}}, "geometry": {"type": "Point", "coordinates": [85.21655267156468, -61.54141093385185]}}]}